{
  "type": "FeatureCollection",
  "features": [
    {
      "type": "Feature",
      "properties": {
        "id": "Store",
        "name": "STORE",
        "building_type": "commercial",
        "period": [
          "Roman"
        ]
      },
      "geometry": {
        "type": "Polygon",
        "coordinates": [
          [
            [
              40.72,
              34.747
            ],
            [
              40.7208,
              34.747
            ],
            [
              40.7208,
              34.7478
            ],
            [
              40.72,
              34.7478
            ],
            [
              40.72,
              34.747
            ]
          ]
        ]
      }
    },
    {
      "type": "Feature",
      "properties": {
        "id": "a1",
        "name": "niche for ablutions",
        "building_type": "house",
        "period": [
          "Roman"
        ]
      },
      "geometry": {
        "type": "Polygon",
        "coordinates": [
          [
            [
              40.722,
              34.747
            ],
            [
              40.7228,
              34.747
            ],
            [
              40.7228,
              34.7478
            ],
            [
              40.722,
              34.7478
            ],
            [
              40.722,
              34.747
            ]
          ]
        ]
      }
    },
    {
      "type": "Feature",
      "properties": {
        "id": "a12",
        "name": "private house B2",
        "building_type": "house",
        "period": [
          "Roman"
        ]
      },
      "geometry": {
        "type": "Polygon",
        "coordinates": [
          [
            [
              40.724,
              34.747
            ],
            [
              40.724799999999995,
              34.747
            ],
            [
              40.724799999999995,
              34.7478
            ],
            [
              40.724,
              34.7478
            ],
            [
              40.724,
              34.747
            ]
          ]
        ]
      }
    },
    {
      "type": "Feature",
      "properties": {
        "id": "a13",
        "name": "private house B2",
        "building_type": "house",
        "period": [
          "Roman"
        ]
      },
      "geometry": {
        "type": "Polygon",
        "coordinates": [
          [
            [
              40.726,
              34.747
            ],
            [
              40.7268,
              34.747
            ],
            [
              40.7268,
              34.7478
            ],
            [
              40.726,
              34.7478
            ],
            [
              40.726,
              34.747
            ]
          ]
        ]
      }
    },
    {
      "type": "Feature",
      "properties": {
        "id": "a2",
        "name": "private house B2",
        "building_type": "house",
        "period": [
          "Roman"
        ]
      },
      "geometry": {
        "type": "Polygon",
        "coordinates": [
          [
            [
              40.728,
              34.747
            ],
            [
              40.7288,
              34.747
            ],
            [
              40.7288,
              34.7478
            ],
            [
              40.728,
              34.7478
            ],
            [
              40.728,
              34.747
            ]
          ]
        ]
      }
    },
    {
      "type": "Feature",
      "properties": {
        "id": "a3",
        "name": "wall painting fragment from Dura-Europos synagogue",
        "building_type": "house",
        "period": [
          "Roman"
        ]
      },
      "geometry": {
        "type": "Polygon",
        "coordinates": [
          [
            [
              40.73,
              34.747
            ],
            [
              40.730799999999995,
              34.747
            ],
            [
              40.730799999999995,
              34.7478
            ],
            [
              40.73,
              34.7478
            ],
            [
              40.73,
              34.747
            ]
          ]
        ]
      }
    },
    {
      "type": "Feature",
      "properties": {
        "id": "a4",
        "name": "private house B2",
        "building_type": "house",
        "period": [
          "Roman"
        ]
      },
      "geometry": {
        "type": "Polygon",
        "coordinates": [
          [
            [
              40.732,
              34.747
            ],
            [
              40.7328,
              34.747
            ],
            [
              40.7328,
              34.7478
            ],
            [
              40.732,
              34.7478
            ],
            [
              40.732,
              34.747
            ]
          ]
        ]
      }
    },
    {
      "type": "Feature",
      "properties": {
        "id": "a6",
        "name": "private house b2",
        "building_type": "house",
        "period": [
          "Roman"
        ]
      },
      "geometry": {
        "type": "Polygon",
        "coordinates": [
          [
            [
              40.734,
              34.747
            ],
            [
              40.7348,
              34.747
            ],
            [
              40.7348,
              34.7478
            ],
            [
              40.734,
              34.7478
            ],
            [
              40.734,
              34.747
            ]
          ]
        ]
      }
    },
    {
      "type": "Feature",
      "properties": {
        "id": "arch of trajan",
        "name": "Triumphal Arch of Trajan",
        "building_type": "unknown",
        "period": [
          "Roman"
        ]
      },
      "geometry": {
        "type": "Polygon",
        "coordinates": [
          [
            [
              40.736,
              34.747
            ],
            [
              40.736799999999995,
              34.747
            ],
            [
              40.736799999999995,
              34.7478
            ],
            [
              40.736,
              34.7478
            ],
            [
              40.736,
              34.747
            ]
          ]
        ]
      }
    },
    {
      "type": "Feature",
      "properties": {
        "id": "b1",
        "name": "private house B2",
        "building_type": "house",
        "period": [
          "Roman"
        ]
      },
      "geometry": {
        "type": "Polygon",
        "coordinates": [
          [
            [
              40.738,
              34.747
            ],
            [
              40.7388,
              34.747
            ],
            [
              40.7388,
              34.7478
            ],
            [
              40.738,
              34.7478
            ],
            [
              40.738,
              34.747
            ]
          ]
        ]
      }
    },
    {
      "type": "Feature",
      "properties": {
        "id": "b2",
        "name": "private house b2",
        "building_type": "house",
        "period": [
          "Roman"
        ]
      },
      "geometry": {
        "type": "Polygon",
        "coordinates": [
          [
            [
              40.74,
              34.747
            ],
            [
              40.7408,
              34.747
            ],
            [
              40.7408,
              34.7478
            ],
            [
              40.74,
              34.7478
            ],
            [
              40.74,
              34.747
            ]
          ]
        ]
      }
    },
    {
      "type": "Feature",
      "properties": {
        "id": "b3",
        "name": "private house B2",
        "building_type": "house",
        "period": [
          "Roman"
        ]
      },
      "geometry": {
        "type": "Polygon",
        "coordinates": [
          [
            [
              40.742,
              34.747
            ],
            [
              40.742799999999995,
              34.747
            ],
            [
              40.742799999999995,
              34.7478
            ],
            [
              40.742,
              34.7478
            ],
            [
              40.742,
              34.747
            ]
          ]
        ]
      }
    },
    {
      "type": "Feature",
      "properties": {
        "id": "b4",
        "name": "Dura-Europos synagogue",
        "building_type": "house",
        "period": [
          "Roman"
        ]
      },
      "geometry": {
        "type": "Polygon",
        "coordinates": [
          [
            [
              40.744,
              34.747
            ],
            [
              40.7448,
              34.747
            ],
            [
              40.7448,
              34.7478
            ],
            [
              40.744,
              34.7478
            ],
            [
              40.744,
              34.747
            ]
          ]
        ]
      }
    },
    {
      "type": "Feature",
      "properties": {
        "id": "b7",
        "name": "Dura-Europos",
        "building_type": "house",
        "period": [
          "Roman"
        ]
      },
      "geometry": {
        "type": "Polygon",
        "coordinates": [
          [
            [
              40.746,
              34.747
            ],
            [
              40.7468,
              34.747
            ],
            [
              40.7468,
              34.7478
            ],
            [
              40.746,
              34.7478
            ],
            [
              40.746,
              34.747
            ]
          ]
        ]
      }
    },
    {
      "type": "Feature",
      "properties": {
        "id": "b8",
        "name": "Central part of site: blocks 1-4",
        "building_type": "house",
        "period": [
          "Roman"
        ]
      },
      "geometry": {
        "type": "Polygon",
        "coordinates": [
          [
            [
              40.748,
              34.747
            ],
            [
              40.748799999999996,
              34.747
            ],
            [
              40.748799999999996,
              34.7478
            ],
            [
              40.748,
              34.7478
            ],
            [
              40.748,
              34.747
            ]
          ]
        ]
      }
    },
    {
      "type": "Feature",
      "properties": {
        "id": "c1",
        "name": "Dura-Europos synagogue",
        "building_type": "house",
        "period": [
          "Roman"
        ]
      },
      "geometry": {
        "type": "Polygon",
        "coordinates": [
          [
            [
              40.75,
              34.747
            ],
            [
              40.7508,
              34.747
            ],
            [
              40.7508,
              34.7478
            ],
            [
              40.75,
              34.7478
            ],
            [
              40.75,
              34.747
            ]
          ]
        ]
      }
    },
    {
      "type": "Feature",
      "properties": {
        "id": "c12",
        "name": "private house b2",
        "building_type": "house",
        "period": [
          "Roman"
        ]
      },
      "geometry": {
        "type": "Polygon",
        "coordinates": [
          [
            [
              40.751999999999995,
              34.747
            ],
            [
              40.75279999999999,
              34.747
            ],
            [
              40.75279999999999,
              34.7478
            ],
            [
              40.751999999999995,
              34.7478
            ],
            [
              40.751999999999995,
              34.747
            ]
          ]
        ]
      }
    },
    {
      "type": "Feature",
      "properties": {
        "id": "c2",
        "name": "wc2 (w60c)",
        "building_type": "house",
        "period": [
          "Roman"
        ]
      },
      "geometry": {
        "type": "Polygon",
        "coordinates": [
          [
            [
              40.754,
              34.747
            ],
            [
              40.754799999999996,
              34.747
            ],
            [
              40.754799999999996,
              34.7478
            ],
            [
              40.754,
              34.7478
            ],
            [
              40.754,
              34.747
            ]
          ]
        ]
      }
    },
    {
      "type": "Feature",
      "properties": {
        "id": "c3",
        "name": "private house b2",
        "building_type": "house",
        "period": [
          "Roman"
        ]
      },
      "geometry": {
        "type": "Polygon",
        "coordinates": [
          [
            [
              40.756,
              34.747
            ],
            [
              40.7568,
              34.747
            ],
            [
              40.7568,
              34.7478
            ],
            [
              40.756,
              34.7478
            ],
            [
              40.756,
              34.747
            ]
          ]
        ]
      }
    },
    {
      "type": "Feature",
      "properties": {
        "id": "c7",
        "name": "Sassanian fresco from private house c7",
        "building_type": "house",
        "period": [
          "Roman"
        ]
      },
      "geometry": {
        "type": "Polygon",
        "coordinates": [
          [
            [
              40.757999999999996,
              34.747
            ],
            [
              40.758799999999994,
              34.747
            ],
            [
              40.758799999999994,
              34.7478
            ],
            [
              40.757999999999996,
              34.7478
            ],
            [
              40.757999999999996,
              34.747
            ]
          ]
        ]
      }
    },
    {
      "type": "Feature",
      "properties": {
        "id": "c8",
        "name": "Dura-Europos",
        "building_type": "house",
        "period": [
          "Roman"
        ]
      },
      "geometry": {
        "type": "Polygon",
        "coordinates": [
          [
            [
              40.76,
              34.747
            ],
            [
              40.760799999999996,
              34.747
            ],
            [
              40.760799999999996,
              34.7478
            ],
            [
              40.76,
              34.7478
            ],
            [
              40.76,
              34.747
            ]
          ]
        ]
      }
    },
    {
      "type": "Feature",
      "properties": {
        "id": "christian building",
        "name": "galaster",
        "building_type": "religious",
        "period": [
          "Roman"
        ]
      },
      "geometry": {
        "type": "Polygon",
        "coordinates": [
          [
            [
              40.762,
              34.747
            ],
            [
              40.7628,
              34.747
            ],
            [
              40.7628,
              34.7478
            ],
            [
              40.762,
              34.7478
            ],
            [
              40.762,
              34.747
            ]
          ]
        ]
      }
    },
    {
      "type": "Feature",
      "properties": {
        "id": "d street",
        "name": "Main Gate (Palmyrene Gate)",
        "building_type": "street",
        "period": [
          "Roman"
        ]
      },
      "geometry": {
        "type": "Polygon",
        "coordinates": [
          [
            [
              40.763999999999996,
              34.747
            ],
            [
              40.764799999999994,
              34.747
            ],
            [
              40.764799999999994,
              34.7478
            ],
            [
              40.763999999999996,
              34.7478
            ],
            [
              40.763999999999996,
              34.747
            ]
          ]
        ]
      }
    },
    {
      "type": "Feature",
      "properties": {
        "id": "d1",
        "name": "Dura Europos",
        "building_type": "house",
        "period": [
          "Roman"
        ]
      },
      "geometry": {
        "type": "Polygon",
        "coordinates": [
          [
            [
              40.766,
              34.747
            ],
            [
              40.766799999999996,
              34.747
            ],
            [
              40.766799999999996,
              34.7478
            ],
            [
              40.766,
              34.7478
            ],
            [
              40.766,
              34.747
            ]
          ]
        ]
      }
    },
    {
      "type": "Feature",
      "properties": {
        "id": "d11",
        "name": "inscriptions from Main Gate (Palmyrene Gate)",
        "building_type": "house",
        "period": [
          "Roman"
        ]
      },
      "geometry": {
        "type": "Polygon",
        "coordinates": [
          [
            [
              40.768,
              34.747
            ],
            [
              40.7688,
              34.747
            ],
            [
              40.7688,
              34.7478
            ],
            [
              40.768,
              34.7478
            ],
            [
              40.768,
              34.747
            ]
          ]
        ]
      }
    },
    {
      "type": "Feature",
      "properties": {
        "id": "d12",
        "name": "inscriptions (D125-130) from Main Gate (Palmyrene Gate)",
        "building_type": "house",
        "period": [
          "Roman"
        ]
      },
      "geometry": {
        "type": "Polygon",
        "coordinates": [
          [
            [
              40.769999999999996,
              34.747
            ],
            [
              40.770799999999994,
              34.747
            ],
            [
              40.770799999999994,
              34.7478
            ],
            [
              40.769999999999996,
              34.7478
            ],
            [
              40.769999999999996,
              34.747
            ]
          ]
        ]
      }
    },
    {
      "type": "Feature",
      "properties": {
        "id": "d2",
        "name": "Inscriptions (D27",
        "building_type": "house",
        "period": [
          "Roman"
        ]
      },
      "geometry": {
        "type": "Polygon",
        "coordinates": [
          [
            [
              40.772,
              34.747
            ],
            [
              40.7728,
              34.747
            ],
            [
              40.7728,
              34.7478
            ],
            [
              40.772,
              34.7478
            ],
            [
              40.772,
              34.747
            ]
          ]
        ]
      }
    },
    {
      "type": "Feature",
      "properties": {
        "id": "d3",
        "name": "Inscriptions (D27",
        "building_type": "house",
        "period": [
          "Roman"
        ]
      },
      "geometry": {
        "type": "Polygon",
        "coordinates": [
          [
            [
              40.774,
              34.747
            ],
            [
              40.7748,
              34.747
            ],
            [
              40.7748,
              34.7478
            ],
            [
              40.774,
              34.7478
            ],
            [
              40.774,
              34.747
            ]
          ]
        ]
      }
    },
    {
      "type": "Feature",
      "properties": {
        "id": "d4",
        "name": "D4",
        "building_type": "house",
        "period": [
          "Roman"
        ]
      },
      "geometry": {
        "type": "Polygon",
        "coordinates": [
          [
            [
              40.775999999999996,
              34.747
            ],
            [
              40.776799999999994,
              34.747
            ],
            [
              40.776799999999994,
              34.7478
            ],
            [
              40.775999999999996,
              34.7478
            ],
            [
              40.775999999999996,
              34.747
            ]
          ]
        ]
      }
    },
    {
      "type": "Feature",
      "properties": {
        "id": "d5",
        "name": "wall painting fragment",
        "building_type": "house",
        "period": [
          "Roman"
        ]
      },
      "geometry": {
        "type": "Polygon",
        "coordinates": [
          [
            [
              40.778,
              34.747
            ],
            [
              40.7788,
              34.747
            ],
            [
              40.7788,
              34.7478
            ],
            [
              40.778,
              34.7478
            ],
            [
              40.778,
              34.747
            ]
          ]
        ]
      }
    },
    {
      "type": "Feature",
      "properties": {
        "id": "d6",
        "name": "Main Gate",
        "building_type": "house",
        "period": [
          "Roman"
        ]
      },
      "geometry": {
        "type": "Polygon",
        "coordinates": [
          [
            [
              40.78,
              34.747
            ],
            [
              40.7808,
              34.747
            ],
            [
              40.7808,
              34.7478
            ],
            [
              40.78,
              34.7478
            ],
            [
              40.78,
              34.747
            ]
          ]
        ]
      }
    },
    {
      "type": "Feature",
      "properties": {
        "id": "d7",
        "name": "West wall dado",
        "building_type": "house",
        "period": [
          "Roman"
        ]
      },
      "geometry": {
        "type": "Polygon",
        "coordinates": [
          [
            [
              40.782,
              34.747
            ],
            [
              40.782799999999995,
              34.747
            ],
            [
              40.782799999999995,
              34.7478
            ],
            [
              40.782,
              34.7478
            ],
            [
              40.782,
              34.747
            ]
          ]
        ]
      }
    },
    {
      "type": "Feature",
      "properties": {
        "id": "e1",
        "name": "staircase (d5 e15)",
        "building_type": "house",
        "period": [
          "Roman"
        ]
      },
      "geometry": {
        "type": "Polygon",
        "coordinates": [
          [
            [
              40.784,
              34.747
            ],
            [
              40.7848,
              34.747
            ],
            [
              40.7848,
              34.7478
            ],
            [
              40.784,
              34.7478
            ],
            [
              40.784,
              34.747
            ]
          ]
        ]
      }
    },
    {
      "type": "Feature",
      "properties": {
        "id": "e3",
        "name": "Dura Europos",
        "building_type": "house",
        "period": [
          "Roman"
        ]
      },
      "geometry": {
        "type": "Polygon",
        "coordinates": [
          [
            [
              40.786,
              34.747
            ],
            [
              40.7868,
              34.747
            ],
            [
              40.7868,
              34.7478
            ],
            [
              40.786,
              34.7478
            ],
            [
              40.786,
              34.747
            ]
          ]
        ]
      }
    },
    {
      "type": "Feature",
      "properties": {
        "id": "e4",
        "name": "west wall",
        "building_type": "house",
        "period": [
          "Roman"
        ]
      },
      "geometry": {
        "type": "Polygon",
        "coordinates": [
          [
            [
              40.788,
              34.747
            ],
            [
              40.788799999999995,
              34.747
            ],
            [
              40.788799999999995,
              34.7478
            ],
            [
              40.788,
              34.7478
            ],
            [
              40.788,
              34.747
            ]
          ]
        ]
      }
    },
    {
      "type": "Feature",
      "properties": {
        "id": "e7",
        "name": "pillar",
        "building_type": "house",
        "period": [
          "Roman"
        ]
      },
      "geometry": {
        "type": "Polygon",
        "coordinates": [
          [
            [
              40.79,
              34.747
            ],
            [
              40.7908,
              34.747
            ],
            [
              40.7908,
              34.7478
            ],
            [
              40.79,
              34.7478
            ],
            [
              40.79,
              34.747
            ]
          ]
        ]
      }
    },
    {
      "type": "Feature",
      "properties": {
        "id": "f1",
        "name": "F1",
        "building_type": "house",
        "period": [
          "Roman"
        ]
      },
      "geometry": {
        "type": "Polygon",
        "coordinates": [
          [
            [
              40.792,
              34.747
            ],
            [
              40.7928,
              34.747
            ],
            [
              40.7928,
              34.7478
            ],
            [
              40.792,
              34.7478
            ],
            [
              40.792,
              34.747
            ]
          ]
        ]
      }
    },
    {
      "type": "Feature",
      "properties": {
        "id": "f10",
        "name": "Dura Europos",
        "building_type": "house",
        "period": [
          "Roman"
        ]
      },
      "geometry": {
        "type": "Polygon",
        "coordinates": [
          [
            [
              40.794,
              34.747
            ],
            [
              40.794799999999995,
              34.747
            ],
            [
              40.794799999999995,
              34.7478
            ],
            [
              40.794,
              34.7478
            ],
            [
              40.794,
              34.747
            ]
          ]
        ]
      }
    },
    {
      "type": "Feature",
      "properties": {
        "id": "f3",
        "name": "Parthian bath/amphitheater f3",
        "building_type": "house",
        "period": [
          "Roman"
        ]
      },
      "geometry": {
        "type": "Polygon",
        "coordinates": [
          [
            [
              40.796,
              34.747
            ],
            [
              40.7968,
              34.747
            ],
            [
              40.7968,
              34.7478
            ],
            [
              40.796,
              34.7478
            ],
            [
              40.796,
              34.747
            ]
          ]
        ]
      }
    },
    {
      "type": "Feature",
      "properties": {
        "id": "f6",
        "name": "synagogue graffiti",
        "building_type": "house",
        "period": [
          "Roman"
        ]
      },
      "geometry": {
        "type": "Polygon",
        "coordinates": [
          [
            [
              40.798,
              34.747
            ],
            [
              40.7988,
              34.747
            ],
            [
              40.7988,
              34.7478
            ],
            [
              40.798,
              34.7478
            ],
            [
              40.798,
              34.747
            ]
          ]
        ]
      }
    },
    {
      "type": "Feature",
      "properties": {
        "id": "g street",
        "name": "Dura Europos",
        "building_type": "street",
        "period": [
          "Roman"
        ]
      },
      "geometry": {
        "type": "Polygon",
        "coordinates": [
          [
            [
              40.8,
              34.747
            ],
            [
              40.800799999999995,
              34.747
            ],
            [
              40.800799999999995,
              34.7478
            ],
            [
              40.8,
              34.7478
            ],
            [
              40.8,
              34.747
            ]
          ]
        ]
      }
    },
    {
      "type": "Feature",
      "properties": {
        "id": "g1",
        "name": "G1- area 70-71",
        "building_type": "house",
        "period": [
          "Roman"
        ]
      },
      "geometry": {
        "type": "Polygon",
        "coordinates": [
          [
            [
              40.802,
              34.747
            ],
            [
              40.8028,
              34.747
            ],
            [
              40.8028,
              34.7478
            ],
            [
              40.802,
              34.7478
            ],
            [
              40.802,
              34.747
            ]
          ]
        ]
      }
    },
    {
      "type": "Feature",
      "properties": {
        "id": "g10",
        "name": "private house B2",
        "building_type": "house",
        "period": [
          "Roman"
        ]
      },
      "geometry": {
        "type": "Polygon",
        "coordinates": [
          [
            [
              40.804,
              34.747
            ],
            [
              40.8048,
              34.747
            ],
            [
              40.8048,
              34.7478
            ],
            [
              40.804,
              34.7478
            ],
            [
              40.804,
              34.747
            ]
          ]
        ]
      }
    },
    {
      "type": "Feature",
      "properties": {
        "id": "g2",
        "name": "columns of private house B2",
        "building_type": "house",
        "period": [
          "Roman"
        ]
      },
      "geometry": {
        "type": "Polygon",
        "coordinates": [
          [
            [
              40.806,
              34.747
            ],
            [
              40.806799999999996,
              34.747
            ],
            [
              40.806799999999996,
              34.7478
            ],
            [
              40.806,
              34.7478
            ],
            [
              40.806,
              34.747
            ]
          ]
        ]
      }
    },
    {
      "type": "Feature",
      "properties": {
        "id": "g3",
        "name": "G3-A2",
        "building_type": "house",
        "period": [
          "Roman"
        ]
      },
      "geometry": {
        "type": "Polygon",
        "coordinates": [
          [
            [
              40.808,
              34.747
            ],
            [
              40.8088,
              34.747
            ],
            [
              40.8088,
              34.7478
            ],
            [
              40.808,
              34.7478
            ],
            [
              40.808,
              34.747
            ]
          ]
        ]
      }
    },
    {
      "type": "Feature",
      "properties": {
        "id": "g5",
        "name": "corner of wall",
        "building_type": "house",
        "period": [
          "Roman"
        ]
      },
      "geometry": {
        "type": "Polygon",
        "coordinates": [
          [
            [
              40.81,
              34.747
            ],
            [
              40.8108,
              34.747
            ],
            [
              40.8108,
              34.7478
            ],
            [
              40.81,
              34.7478
            ],
            [
              40.81,
              34.747
            ]
          ]
        ]
      }
    },
    {
      "type": "Feature",
      "properties": {
        "id": "h street",
        "name": "City Arch",
        "building_type": "street",
        "period": [
          "Roman"
        ]
      },
      "geometry": {
        "type": "Polygon",
        "coordinates": [
          [
            [
              40.812,
              34.747
            ],
            [
              40.812799999999996,
              34.747
            ],
            [
              40.812799999999996,
              34.7478
            ],
            [
              40.812,
              34.7478
            ],
            [
              40.812,
              34.747
            ]
          ]
        ]
      }
    },
    {
      "type": "Feature",
      "properties": {
        "id": "h1",
        "name": "Gadde H1-1",
        "building_type": "house",
        "period": [
          "Roman"
        ]
      },
      "geometry": {
        "type": "Polygon",
        "coordinates": [
          [
            [
              40.814,
              34.747
            ],
            [
              40.8148,
              34.747
            ],
            [
              40.8148,
              34.7478
            ],
            [
              40.814,
              34.7478
            ],
            [
              40.814,
              34.747
            ]
          ]
        ]
      }
    },
    {
      "type": "Feature",
      "properties": {
        "id": "h2",
        "name": "Temple of Atargatis",
        "building_type": "house",
        "period": [
          "Roman"
        ]
      },
      "geometry": {
        "type": "Polygon",
        "coordinates": [
          [
            [
              40.815999999999995,
              34.747
            ],
            [
              40.81679999999999,
              34.747
            ],
            [
              40.81679999999999,
              34.7478
            ],
            [
              40.815999999999995,
              34.7478
            ],
            [
              40.815999999999995,
              34.747
            ]
          ]
        ]
      }
    },
    {
      "type": "Feature",
      "properties": {
        "id": "h3",
        "name": "Doorway to Building h3 in section b8",
        "building_type": "house",
        "period": [
          "Roman"
        ]
      },
      "geometry": {
        "type": "Polygon",
        "coordinates": [
          [
            [
              40.818,
              34.747
            ],
            [
              40.818799999999996,
              34.747
            ],
            [
              40.818799999999996,
              34.7478
            ],
            [
              40.818,
              34.7478
            ],
            [
              40.818,
              34.747
            ]
          ]
        ]
      }
    },
    {
      "type": "Feature",
      "properties": {
        "id": "h4",
        "name": "Temple of Artemis",
        "building_type": "house",
        "period": [
          "Roman"
        ]
      },
      "geometry": {
        "type": "Polygon",
        "coordinates": [
          [
            [
              40.82,
              34.747
            ],
            [
              40.8208,
              34.747
            ],
            [
              40.8208,
              34.7478
            ],
            [
              40.82,
              34.7478
            ],
            [
              40.82,
              34.747
            ]
          ]
        ]
      }
    },
    {
      "type": "Feature",
      "properties": {
        "id": "h5",
        "name": "S wall of b8",
        "building_type": "house",
        "period": [
          "Roman"
        ]
      },
      "geometry": {
        "type": "Polygon",
        "coordinates": [
          [
            [
              40.821999999999996,
              34.747
            ],
            [
              40.822799999999994,
              34.747
            ],
            [
              40.822799999999994,
              34.7478
            ],
            [
              40.821999999999996,
              34.7478
            ],
            [
              40.821999999999996,
              34.747
            ]
          ]
        ]
      }
    },
    {
      "type": "Feature",
      "properties": {
        "id": "i6",
        "name": "Dura Europos excavation site",
        "building_type": "house",
        "period": [
          "Roman"
        ]
      },
      "geometry": {
        "type": "Polygon",
        "coordinates": [
          [
            [
              40.824,
              34.747
            ],
            [
              40.824799999999996,
              34.747
            ],
            [
              40.824799999999996,
              34.7478
            ],
            [
              40.824,
              34.7478
            ],
            [
              40.824,
              34.747
            ]
          ]
        ]
      }
    },
    {
      "type": "Feature",
      "properties": {
        "id": "j1",
        "name": "Houses F and C",
        "building_type": "house",
        "period": [
          "Roman"
        ]
      },
      "geometry": {
        "type": "Polygon",
        "coordinates": [
          [
            [
              40.826,
              34.747
            ],
            [
              40.8268,
              34.747
            ],
            [
              40.8268,
              34.7478
            ],
            [
              40.826,
              34.7478
            ],
            [
              40.826,
              34.747
            ]
          ]
        ]
      }
    },
    {
      "type": "Feature",
      "properties": {
        "id": "j3",
        "name": "Temple of Bel",
        "building_type": "house",
        "period": [
          "Roman"
        ]
      },
      "geometry": {
        "type": "Polygon",
        "coordinates": [
          [
            [
              40.827999999999996,
              34.747
            ],
            [
              40.828799999999994,
              34.747
            ],
            [
              40.828799999999994,
              34.7478
            ],
            [
              40.827999999999996,
              34.7478
            ],
            [
              40.827999999999996,
              34.747
            ]
          ]
        ]
      }
    },
    {
      "type": "Feature",
      "properties": {
        "id": "j5",
        "name": "Temple of Bel",
        "building_type": "house",
        "period": [
          "Roman"
        ]
      },
      "geometry": {
        "type": "Polygon",
        "coordinates": [
          [
            [
              40.83,
              34.747
            ],
            [
              40.830799999999996,
              34.747
            ],
            [
              40.830799999999996,
              34.7478
            ],
            [
              40.83,
              34.7478
            ],
            [
              40.83,
              34.747
            ]
          ]
        ]
      }
    },
    {
      "type": "Feature",
      "properties": {
        "id": "j7",
        "name": "Mithraeum",
        "building_type": "house",
        "period": [
          "Roman"
        ]
      },
      "geometry": {
        "type": "Polygon",
        "coordinates": [
          [
            [
              40.832,
              34.747
            ],
            [
              40.8328,
              34.747
            ],
            [
              40.8328,
              34.7478
            ],
            [
              40.832,
              34.7478
            ],
            [
              40.832,
              34.747
            ]
          ]
        ]
      }
    },
    {
      "type": "Feature",
      "properties": {
        "id": "k8",
        "name": "private house K8 embankment",
        "building_type": "house",
        "period": [
          "Roman"
        ]
      },
      "geometry": {
        "type": "Polygon",
        "coordinates": [
          [
            [
              40.833999999999996,
              34.747
            ],
            [
              40.834799999999994,
              34.747
            ],
            [
              40.834799999999994,
              34.7478
            ],
            [
              40.833999999999996,
              34.7478
            ],
            [
              40.833999999999996,
              34.747
            ]
          ]
        ]
      }
    },
    {
      "type": "Feature",
      "properties": {
        "id": "l street",
        "name": "Main Gate (Palmyrene Gate)",
        "building_type": "street",
        "period": [
          "Roman"
        ]
      },
      "geometry": {
        "type": "Polygon",
        "coordinates": [
          [
            [
              40.836,
              34.747
            ],
            [
              40.8368,
              34.747
            ],
            [
              40.8368,
              34.7478
            ],
            [
              40.836,
              34.7478
            ],
            [
              40.836,
              34.747
            ]
          ]
        ]
      }
    },
    {
      "type": "Feature",
      "properties": {
        "id": "l8",
        "name": "L8 House",
        "building_type": "house",
        "period": [
          "Roman"
        ]
      },
      "geometry": {
        "type": "Polygon",
        "coordinates": [
          [
            [
              40.838,
              34.747
            ],
            [
              40.8388,
              34.747
            ],
            [
              40.8388,
              34.7478
            ],
            [
              40.838,
              34.7478
            ],
            [
              40.838,
              34.747
            ]
          ]
        ]
      }
    },
    {
      "type": "Feature",
      "properties": {
        "id": "m street",
        "name": "Temple of Atargatis",
        "building_type": "street",
        "period": [
          "Roman"
        ]
      },
      "geometry": {
        "type": "Polygon",
        "coordinates": [
          [
            [
              40.839999999999996,
              34.747
            ],
            [
              40.840799999999994,
              34.747
            ],
            [
              40.840799999999994,
              34.7478
            ],
            [
              40.839999999999996,
              34.7478
            ],
            [
              40.839999999999996,
              34.747
            ]
          ]
        ]
      }
    },
    {
      "type": "Feature",
      "properties": {
        "id": "m2",
        "name": "G3-M2 (as noted in the image file name)",
        "building_type": "house",
        "period": [
          "Roman"
        ]
      },
      "geometry": {
        "type": "Polygon",
        "coordinates": [
          [
            [
              40.842,
              34.747
            ],
            [
              40.8428,
              34.747
            ],
            [
              40.8428,
              34.7478
            ],
            [
              40.842,
              34.7478
            ],
            [
              40.842,
              34.747
            ]
          ]
        ]
      }
    },
    {
      "type": "Feature",
      "properties": {
        "id": "m7",
        "name": "Parthian banquet scene from Roman Bath/Private House",
        "building_type": "house",
        "period": [
          "Roman"
        ]
      },
      "geometry": {
        "type": "Polygon",
        "coordinates": [
          [
            [
              40.844,
              34.747
            ],
            [
              40.8448,
              34.747
            ],
            [
              40.8448,
              34.7478
            ],
            [
              40.844,
              34.7478
            ],
            [
              40.844,
              34.747
            ]
          ]
        ]
      }
    },
    {
      "type": "Feature",
      "properties": {
        "id": "m8",
        "name": "stair in m8 beside t15 at Dura Europos",
        "building_type": "house",
        "period": [
          "Roman"
        ]
      },
      "geometry": {
        "type": "Polygon",
        "coordinates": [
          [
            [
              40.846,
              34.747
            ],
            [
              40.846799999999995,
              34.747
            ],
            [
              40.846799999999995,
              34.7478
            ],
            [
              40.846,
              34.7478
            ],
            [
              40.846,
              34.747
            ]
          ]
        ]
      }
    },
    {
      "type": "Feature",
      "properties": {
        "id": "mithraeum",
        "name": "detail of painting on arch",
        "building_type": "religious",
        "period": [
          "Roman"
        ]
      },
      "geometry": {
        "type": "Polygon",
        "coordinates": [
          [
            [
              40.848,
              34.747
            ],
            [
              40.8488,
              34.747
            ],
            [
              40.8488,
              34.7478
            ],
            [
              40.848,
              34.7478
            ],
            [
              40.848,
              34.747
            ]
          ]
        ]
      }
    },
    {
      "type": "Feature",
      "properties": {
        "id": "n street",
        "name": "Inscription #169",
        "building_type": "street",
        "period": [
          "Roman"
        ]
      },
      "geometry": {
        "type": "Polygon",
        "coordinates": [
          [
            [
              40.85,
              34.747
            ],
            [
              40.8508,
              34.747
            ],
            [
              40.8508,
              34.7478
            ],
            [
              40.85,
              34.7478
            ],
            [
              40.85,
              34.747
            ]
          ]
        ]
      }
    },
    {
      "type": "Feature",
      "properties": {
        "id": "n1",
        "name": "dado",
        "building_type": "house",
        "period": [
          "Roman"
        ]
      },
      "geometry": {
        "type": "Polygon",
        "coordinates": [
          [
            [
              40.852,
              34.747
            ],
            [
              40.852799999999995,
              34.747
            ],
            [
              40.852799999999995,
              34.7478
            ],
            [
              40.852,
              34.7478
            ],
            [
              40.852,
              34.747
            ]
          ]
        ]
      }
    },
    {
      "type": "Feature",
      "properties": {
        "id": "n3",
        "name": "Dura-Europos synagogue",
        "building_type": "house",
        "period": [
          "Roman"
        ]
      },
      "geometry": {
        "type": "Polygon",
        "coordinates": [
          [
            [
              40.854,
              34.747
            ],
            [
              40.8548,
              34.747
            ],
            [
              40.8548,
              34.7478
            ],
            [
              40.854,
              34.7478
            ],
            [
              40.854,
              34.747
            ]
          ]
        ]
      }
    },
    {
      "type": "Feature",
      "properties": {
        "id": "n6",
        "name": "animal (likely leopard or panther)",
        "building_type": "house",
        "period": [
          "Roman"
        ]
      },
      "geometry": {
        "type": "Polygon",
        "coordinates": [
          [
            [
              40.856,
              34.747
            ],
            [
              40.8568,
              34.747
            ],
            [
              40.8568,
              34.7478
            ],
            [
              40.856,
              34.7478
            ],
            [
              40.856,
              34.747
            ]
          ]
        ]
      }
    },
    {
      "type": "Feature",
      "properties": {
        "id": "n7",
        "name": "Temple of Zeus Kyrios with Tower 16",
        "building_type": "house",
        "period": [
          "Roman"
        ]
      },
      "geometry": {
        "type": "Polygon",
        "coordinates": [
          [
            [
              40.858,
              34.747
            ],
            [
              40.858799999999995,
              34.747
            ],
            [
              40.858799999999995,
              34.7478
            ],
            [
              40.858,
              34.7478
            ],
            [
              40.858,
              34.747
            ]
          ]
        ]
      }
    },
    {
      "type": "Feature",
      "properties": {
        "id": "n8",
        "name": "near Tower 15",
        "building_type": "house",
        "period": [
          "Roman"
        ]
      },
      "geometry": {
        "type": "Polygon",
        "coordinates": [
          [
            [
              40.86,
              34.747
            ],
            [
              40.8608,
              34.747
            ],
            [
              40.8608,
              34.7478
            ],
            [
              40.86,
              34.7478
            ],
            [
              40.86,
              34.747
            ]
          ]
        ]
      }
    },
    {
      "type": "Feature",
      "properties": {
        "id": "n9",
        "name": "Dura-Europos synagogue",
        "building_type": "house",
        "period": [
          "Roman"
        ]
      },
      "geometry": {
        "type": "Polygon",
        "coordinates": [
          [
            [
              40.862,
              34.747
            ],
            [
              40.8628,
              34.747
            ],
            [
              40.8628,
              34.7478
            ],
            [
              40.862,
              34.7478
            ],
            [
              40.862,
              34.747
            ]
          ]
        ]
      }
    },
    {
      "type": "Feature",
      "properties": {
        "id": "necropolis",
        "name": "fallen brick structure",
        "building_type": "necropolis",
        "period": [
          "Roman"
        ]
      },
      "geometry": {
        "type": "Polygon",
        "coordinates": [
          [
            [
              40.864,
              34.747
            ],
            [
              40.864799999999995,
              34.747
            ],
            [
              40.864799999999995,
              34.7478
            ],
            [
              40.864,
              34.7478
            ],
            [
              40.864,
              34.747
            ]
          ]
        ]
      }
    },
    {
      "type": "Feature",
      "properties": {
        "id": "o street",
        "name": "court 4",
        "building_type": "street",
        "period": [
          "Roman"
        ]
      },
      "geometry": {
        "type": "Polygon",
        "coordinates": [
          [
            [
              40.866,
              34.747
            ],
            [
              40.8668,
              34.747
            ],
            [
              40.8668,
              34.7478
            ],
            [
              40.866,
              34.7478
            ],
            [
              40.866,
              34.747
            ]
          ]
        ]
      }
    },
    {
      "type": "Feature",
      "properties": {
        "id": "palmyrene gate",
        "name": "Main Gate (Palmyrene Gate)",
        "building_type": "military",
        "period": [
          "Roman"
        ]
      },
      "geometry": {
        "type": "Polygon",
        "coordinates": [
          [
            [
              40.868,
              34.747
            ],
            [
              40.8688,
              34.747
            ],
            [
              40.8688,
              34.7478
            ],
            [
              40.868,
              34.7478
            ],
            [
              40.868,
              34.747
            ]
          ]
        ]
      }
    },
    {
      "type": "Feature",
      "properties": {
        "id": "r street",
        "name": "Drain in alley near Street H",
        "building_type": "street",
        "period": [
          "Roman"
        ]
      },
      "geometry": {
        "type": "Polygon",
        "coordinates": [
          [
            [
              40.87,
              34.747
            ],
            [
              40.870799999999996,
              34.747
            ],
            [
              40.870799999999996,
              34.7478
            ],
            [
              40.87,
              34.7478
            ],
            [
              40.87,
              34.747
            ]
          ]
        ]
      }
    },
    {
      "type": "Feature",
      "properties": {
        "id": "r2",
        "name": "Tower 23",
        "building_type": "house",
        "period": [
          "Roman"
        ]
      },
      "geometry": {
        "type": "Polygon",
        "coordinates": [
          [
            [
              40.872,
              34.747
            ],
            [
              40.8728,
              34.747
            ],
            [
              40.8728,
              34.7478
            ],
            [
              40.872,
              34.7478
            ],
            [
              40.872,
              34.747
            ]
          ]
        ]
      }
    },
    {
      "type": "Feature",
      "properties": {
        "id": "s street",
        "name": "road trench from S ramparts",
        "building_type": "street",
        "period": [
          "Roman"
        ]
      },
      "geometry": {
        "type": "Polygon",
        "coordinates": [
          [
            [
              40.874,
              34.747
            ],
            [
              40.8748,
              34.747
            ],
            [
              40.8748,
              34.7478
            ],
            [
              40.874,
              34.7478
            ],
            [
              40.874,
              34.747
            ]
          ]
        ]
      }
    },
    {
      "type": "Feature",
      "properties": {
        "id": "s1",
        "name": "dado",
        "building_type": "house",
        "period": [
          "Roman"
        ]
      },
      "geometry": {
        "type": "Polygon",
        "coordinates": [
          [
            [
              40.876,
              34.747
            ],
            [
              40.876799999999996,
              34.747
            ],
            [
              40.876799999999996,
              34.7478
            ],
            [
              40.876,
              34.7478
            ],
            [
              40.876,
              34.747
            ]
          ]
        ]
      }
    },
    {
      "type": "Feature",
      "properties": {
        "id": "s11",
        "name": "East",
        "building_type": "house",
        "period": [
          "Roman"
        ]
      },
      "geometry": {
        "type": "Polygon",
        "coordinates": [
          [
            [
              40.878,
              34.747
            ],
            [
              40.8788,
              34.747
            ],
            [
              40.8788,
              34.7478
            ],
            [
              40.878,
              34.7478
            ],
            [
              40.878,
              34.747
            ]
          ]
        ]
      }
    },
    {
      "type": "Feature",
      "properties": {
        "id": "s12",
        "name": "G1-S124 West",
        "building_type": "house",
        "period": [
          "Roman"
        ]
      },
      "geometry": {
        "type": "Polygon",
        "coordinates": [
          [
            [
              40.879999999999995,
              34.747
            ],
            [
              40.880799999999994,
              34.747
            ],
            [
              40.880799999999994,
              34.7478
            ],
            [
              40.879999999999995,
              34.7478
            ],
            [
              40.879999999999995,
              34.747
            ]
          ]
        ]
      }
    },
    {
      "type": "Feature",
      "properties": {
        "id": "s3",
        "name": "shop fittings",
        "building_type": "house",
        "period": [
          "Roman"
        ]
      },
      "geometry": {
        "type": "Polygon",
        "coordinates": [
          [
            [
              40.882,
              34.747
            ],
            [
              40.882799999999996,
              34.747
            ],
            [
              40.882799999999996,
              34.7478
            ],
            [
              40.882,
              34.7478
            ],
            [
              40.882,
              34.747
            ]
          ]
        ]
      }
    },
    {
      "type": "Feature",
      "properties": {
        "id": "s4",
        "name": "dado",
        "building_type": "house",
        "period": [
          "Roman"
        ]
      },
      "geometry": {
        "type": "Polygon",
        "coordinates": [
          [
            [
              40.884,
              34.747
            ],
            [
              40.8848,
              34.747
            ],
            [
              40.8848,
              34.7478
            ],
            [
              40.884,
              34.7478
            ],
            [
              40.884,
              34.747
            ]
          ]
        ]
      }
    },
    {
      "type": "Feature",
      "properties": {
        "id": "s5",
        "name": "exterior corner of structure H",
        "building_type": "house",
        "period": [
          "Roman"
        ]
      },
      "geometry": {
        "type": "Polygon",
        "coordinates": [
          [
            [
              40.885999999999996,
              34.747
            ],
            [
              40.886799999999994,
              34.747
            ],
            [
              40.886799999999994,
              34.7478
            ],
            [
              40.885999999999996,
              34.7478
            ],
            [
              40.885999999999996,
              34.747
            ]
          ]
        ]
      }
    },
    {
      "type": "Feature",
      "properties": {
        "id": "s6",
        "name": "animal",
        "building_type": "house",
        "period": [
          "Roman"
        ]
      },
      "geometry": {
        "type": "Polygon",
        "coordinates": [
          [
            [
              40.888,
              34.747
            ],
            [
              40.888799999999996,
              34.747
            ],
            [
              40.888799999999996,
              34.7478
            ],
            [
              40.888,
              34.7478
            ],
            [
              40.888,
              34.747
            ]
          ]
        ]
      }
    },
    {
      "type": "Feature",
      "properties": {
        "id": "s9",
        "name": "dado",
        "building_type": "house",
        "period": [
          "Roman"
        ]
      },
      "geometry": {
        "type": "Polygon",
        "coordinates": [
          [
            [
              40.89,
              34.747
            ],
            [
              40.8908,
              34.747
            ],
            [
              40.8908,
              34.7478
            ],
            [
              40.89,
              34.7478
            ],
            [
              40.89,
              34.747
            ]
          ]
        ]
      }
    },
    {
      "type": "Feature",
      "properties": {
        "id": "synagogue",
        "name": "Pahlavi inscription from the Synagogue at Dura Europos",
        "building_type": "religious",
        "period": [
          "Roman"
        ]
      },
      "geometry": {
        "type": "Polygon",
        "coordinates": [
          [
            [
              40.891999999999996,
              34.747
            ],
            [
              40.892799999999994,
              34.747
            ],
            [
              40.892799999999994,
              34.7478
            ],
            [
              40.891999999999996,
              34.7478
            ],
            [
              40.891999999999996,
              34.747
            ]
          ]
        ]
      }
    },
    {
      "type": "Feature",
      "properties": {
        "id": "t street",
        "name": "Market Street",
        "building_type": "street",
        "period": [
          "Roman"
        ]
      },
      "geometry": {
        "type": "Polygon",
        "coordinates": [
          [
            [
              40.894,
              34.747
            ],
            [
              40.8948,
              34.747
            ],
            [
              40.8948,
              34.7478
            ],
            [
              40.894,
              34.7478
            ],
            [
              40.894,
              34.747
            ]
          ]
        ]
      }
    },
    {
      "type": "Feature",
      "properties": {
        "id": "t1",
        "name": "stair in m8 beside t15 at Dura Europos",
        "building_type": "house",
        "period": [
          "Roman"
        ]
      },
      "geometry": {
        "type": "Polygon",
        "coordinates": [
          [
            [
              40.896,
              34.747
            ],
            [
              40.8968,
              34.747
            ],
            [
              40.8968,
              34.7478
            ],
            [
              40.896,
              34.7478
            ],
            [
              40.896,
              34.747
            ]
          ]
        ]
      }
    },
    {
      "type": "Feature",
      "properties": {
        "id": "t14",
        "name": "mine T14",
        "building_type": "house",
        "period": [
          "Roman"
        ]
      },
      "geometry": {
        "type": "Polygon",
        "coordinates": [
          [
            [
              40.897999999999996,
              34.747
            ],
            [
              40.898799999999994,
              34.747
            ],
            [
              40.898799999999994,
              34.7478
            ],
            [
              40.897999999999996,
              34.7478
            ],
            [
              40.897999999999996,
              34.747
            ]
          ]
        ]
      }
    },
    {
      "type": "Feature",
      "properties": {
        "id": "t2",
        "name": "t21",
        "building_type": "house",
        "period": [
          "Roman"
        ]
      },
      "geometry": {
        "type": "Polygon",
        "coordinates": [
          [
            [
              40.9,
              34.747
            ],
            [
              40.9008,
              34.747
            ],
            [
              40.9008,
              34.7478
            ],
            [
              40.9,
              34.7478
            ],
            [
              40.9,
              34.747
            ]
          ]
        ]
      }
    },
    {
      "type": "Feature",
      "properties": {
        "id": "temple of adonis",
        "name": "Entrance to sanctuary",
        "building_type": "temple",
        "period": [
          "Roman"
        ]
      },
      "geometry": {
        "type": "Polygon",
        "coordinates": [
          [
            [
              40.902,
              34.747
            ],
            [
              40.9028,
              34.747
            ],
            [
              40.9028,
              34.7478
            ],
            [
              40.902,
              34.7478
            ],
            [
              40.902,
              34.747
            ]
          ]
        ]
      }
    },
    {
      "type": "Feature",
      "properties": {
        "id": "temple of aphlad",
        "name": "Naos 1",
        "building_type": "temple",
        "period": [
          "Roman"
        ]
      },
      "geometry": {
        "type": "Polygon",
        "coordinates": [
          [
            [
              40.903999999999996,
              34.747
            ],
            [
              40.904799999999994,
              34.747
            ],
            [
              40.904799999999994,
              34.7478
            ],
            [
              40.903999999999996,
              34.7478
            ],
            [
              40.903999999999996,
              34.747
            ]
          ]
        ]
      }
    },
    {
      "type": "Feature",
      "properties": {
        "id": "temple of atargatis",
        "name": "Temple of Atargatis",
        "building_type": "temple",
        "period": [
          "Roman"
        ]
      },
      "geometry": {
        "type": "Polygon",
        "coordinates": [
          [
            [
              40.906,
              34.747
            ],
            [
              40.9068,
              34.747
            ],
            [
              40.9068,
              34.7478
            ],
            [
              40.906,
              34.7478
            ],
            [
              40.906,
              34.747
            ]
          ]
        ]
      }
    },
    {
      "type": "Feature",
      "properties": {
        "id": "temple of bel",
        "name": "Temple of Bel",
        "building_type": "temple",
        "period": [
          "Roman"
        ]
      },
      "geometry": {
        "type": "Polygon",
        "coordinates": [
          [
            [
              40.908,
              34.747
            ],
            [
              40.9088,
              34.747
            ],
            [
              40.9088,
              34.7478
            ],
            [
              40.908,
              34.7478
            ],
            [
              40.908,
              34.747
            ]
          ]
        ]
      }
    },
    {
      "type": "Feature",
      "properties": {
        "id": "temple of gadde",
        "name": "Temple of Gadde",
        "building_type": "temple",
        "period": [
          "Roman"
        ]
      },
      "geometry": {
        "type": "Polygon",
        "coordinates": [
          [
            [
              40.91,
              34.747
            ],
            [
              40.910799999999995,
              34.747
            ],
            [
              40.910799999999995,
              34.7478
            ],
            [
              40.91,
              34.7478
            ],
            [
              40.91,
              34.747
            ]
          ]
        ]
      }
    },
    {
      "type": "Feature",
      "properties": {
        "id": "temple of the roman archers",
        "name": "Military Temple (Temple of the Roman Archers)",
        "building_type": "temple",
        "period": [
          "Roman"
        ]
      },
      "geometry": {
        "type": "Polygon",
        "coordinates": [
          [
            [
              40.912,
              34.747
            ],
            [
              40.9128,
              34.747
            ],
            [
              40.9128,
              34.7478
            ],
            [
              40.912,
              34.7478
            ],
            [
              40.912,
              34.747
            ]
          ]
        ]
      }
    },
    {
      "type": "Feature",
      "properties": {
        "id": "temple of zeus megistos",
        "name": "architectural details (possibly wall or foundation remains) at Dura Europos",
        "building_type": "temple",
        "period": [
          "Roman"
        ]
      },
      "geometry": {
        "type": "Polygon",
        "coordinates": [
          [
            [
              40.914,
              34.747
            ],
            [
              40.9148,
              34.747
            ],
            [
              40.9148,
              34.7478
            ],
            [
              40.914,
              34.7478
            ],
            [
              40.914,
              34.747
            ]
          ]
        ]
      }
    },
    {
      "type": "Feature",
      "properties": {
        "id": "tower 1",
        "name": "Tower 1",
        "building_type": "military",
        "period": [
          "Roman"
        ]
      },
      "geometry": {
        "type": "Polygon",
        "coordinates": [
          [
            [
              40.916,
              34.747
            ],
            [
              40.916799999999995,
              34.747
            ],
            [
              40.916799999999995,
              34.7478
            ],
            [
              40.916,
              34.7478
            ],
            [
              40.916,
              34.747
            ]
          ]
        ]
      }
    },
    {
      "type": "Feature",
      "properties": {
        "id": "tower 10",
        "name": "South Wall with Towers 9-10",
        "building_type": "military",
        "period": [
          "Roman"
        ]
      },
      "geometry": {
        "type": "Polygon",
        "coordinates": [
          [
            [
              40.918,
              34.747
            ],
            [
              40.9188,
              34.747
            ],
            [
              40.9188,
              34.7478
            ],
            [
              40.918,
              34.7478
            ],
            [
              40.918,
              34.747
            ]
          ]
        ]
      }
    },
    {
      "type": "Feature",
      "properties": {
        "id": "tower 12",
        "name": "excavation of courtine and Tower 12 at Dura Europos",
        "building_type": "military",
        "period": [
          "Roman"
        ]
      },
      "geometry": {
        "type": "Polygon",
        "coordinates": [
          [
            [
              40.92,
              34.747
            ],
            [
              40.9208,
              34.747
            ],
            [
              40.9208,
              34.7478
            ],
            [
              40.92,
              34.7478
            ],
            [
              40.92,
              34.747
            ]
          ]
        ]
      }
    },
    {
      "type": "Feature",
      "properties": {
        "id": "tower 13",
        "name": "Tower 13",
        "building_type": "military",
        "period": [
          "Roman"
        ]
      },
      "geometry": {
        "type": "Polygon",
        "coordinates": [
          [
            [
              40.922,
              34.747
            ],
            [
              40.922799999999995,
              34.747
            ],
            [
              40.922799999999995,
              34.7478
            ],
            [
              40.922,
              34.7478
            ],
            [
              40.922,
              34.747
            ]
          ]
        ]
      }
    },
    {
      "type": "Feature",
      "properties": {
        "id": "tower 14",
        "name": "Mine 4",
        "building_type": "military",
        "period": [
          "Roman"
        ]
      },
      "geometry": {
        "type": "Polygon",
        "coordinates": [
          [
            [
              40.924,
              34.747
            ],
            [
              40.9248,
              34.747
            ],
            [
              40.9248,
              34.7478
            ],
            [
              40.924,
              34.7478
            ],
            [
              40.924,
              34.747
            ]
          ]
        ]
      }
    },
    {
      "type": "Feature",
      "properties": {
        "id": "tower 15",
        "name": "staircase near Tower 15",
        "building_type": "military",
        "period": [
          "Roman"
        ]
      },
      "geometry": {
        "type": "Polygon",
        "coordinates": [
          [
            [
              40.926,
              34.747
            ],
            [
              40.9268,
              34.747
            ],
            [
              40.9268,
              34.7478
            ],
            [
              40.926,
              34.7478
            ],
            [
              40.926,
              34.747
            ]
          ]
        ]
      }
    },
    {
      "type": "Feature",
      "properties": {
        "id": "tower 16",
        "name": "Temple of Zeus Kyrios and Tower 16",
        "building_type": "military",
        "period": [
          "Roman"
        ]
      },
      "geometry": {
        "type": "Polygon",
        "coordinates": [
          [
            [
              40.928,
              34.747
            ],
            [
              40.928799999999995,
              34.747
            ],
            [
              40.928799999999995,
              34.7478
            ],
            [
              40.928,
              34.7478
            ],
            [
              40.928,
              34.747
            ]
          ]
        ]
      }
    },
    {
      "type": "Feature",
      "properties": {
        "id": "tower 17",
        "name": "Western ramparts near Tower 17",
        "building_type": "military",
        "period": [
          "Roman"
        ]
      },
      "geometry": {
        "type": "Polygon",
        "coordinates": [
          [
            [
              40.93,
              34.747
            ],
            [
              40.9308,
              34.747
            ],
            [
              40.9308,
              34.7478
            ],
            [
              40.93,
              34.7478
            ],
            [
              40.93,
              34.747
            ]
          ]
        ]
      }
    },
    {
      "type": "Feature",
      "properties": {
        "id": "tower 18",
        "name": "Wall Street",
        "building_type": "military",
        "period": [
          "Roman"
        ]
      },
      "geometry": {
        "type": "Polygon",
        "coordinates": [
          [
            [
              40.932,
              34.747
            ],
            [
              40.9328,
              34.747
            ],
            [
              40.9328,
              34.7478
            ],
            [
              40.932,
              34.7478
            ],
            [
              40.932,
              34.747
            ]
          ]
        ]
      }
    },
    {
      "type": "Feature",
      "properties": {
        "id": "tower 19",
        "name": "skeleton in armor",
        "building_type": "military",
        "period": [
          "Roman"
        ]
      },
      "geometry": {
        "type": "Polygon",
        "coordinates": [
          [
            [
              40.934,
              34.747
            ],
            [
              40.934799999999996,
              34.747
            ],
            [
              40.934799999999996,
              34.7478
            ],
            [
              40.934,
              34.7478
            ],
            [
              40.934,
              34.747
            ]
          ]
        ]
      }
    },
    {
      "type": "Feature",
      "properties": {
        "id": "tower 2",
        "name": "Tower of Archers (Tower 2)",
        "building_type": "military",
        "period": [
          "Roman"
        ]
      },
      "geometry": {
        "type": "Polygon",
        "coordinates": [
          [
            [
              40.936,
              34.747
            ],
            [
              40.9368,
              34.747
            ],
            [
              40.9368,
              34.7478
            ],
            [
              40.936,
              34.7478
            ],
            [
              40.936,
              34.747
            ]
          ]
        ]
      }
    },
    {
      "type": "Feature",
      "properties": {
        "id": "tower 20",
        "name": "Roman quarter",
        "building_type": "military",
        "period": [
          "Roman"
        ]
      },
      "geometry": {
        "type": "Polygon",
        "coordinates": [
          [
            [
              40.938,
              34.747
            ],
            [
              40.9388,
              34.747
            ],
            [
              40.9388,
              34.7478
            ],
            [
              40.938,
              34.7478
            ],
            [
              40.938,
              34.747
            ]
          ]
        ]
      }
    },
    {
      "type": "Feature",
      "properties": {
        "id": "tower 21",
        "name": "Tower 21",
        "building_type": "military",
        "period": [
          "Roman"
        ]
      },
      "geometry": {
        "type": "Polygon",
        "coordinates": [
          [
            [
              40.94,
              34.747
            ],
            [
              40.940799999999996,
              34.747
            ],
            [
              40.940799999999996,
              34.7478
            ],
            [
              40.94,
              34.7478
            ],
            [
              40.94,
              34.747
            ]
          ]
        ]
      }
    },
    {
      "type": "Feature",
      "properties": {
        "id": "tower 22",
        "name": "Tower 22",
        "building_type": "military",
        "period": [
          "Roman"
        ]
      },
      "geometry": {
        "type": "Polygon",
        "coordinates": [
          [
            [
              40.942,
              34.747
            ],
            [
              40.9428,
              34.747
            ],
            [
              40.9428,
              34.7478
            ],
            [
              40.942,
              34.7478
            ],
            [
              40.942,
              34.747
            ]
          ]
        ]
      }
    },
    {
      "type": "Feature",
      "properties": {
        "id": "tower 23",
        "name": "Tower 23",
        "building_type": "military",
        "period": [
          "Roman"
        ]
      },
      "geometry": {
        "type": "Polygon",
        "coordinates": [
          [
            [
              40.943999999999996,
              34.747
            ],
            [
              40.944799999999994,
              34.747
            ],
            [
              40.944799999999994,
              34.7478
            ],
            [
              40.943999999999996,
              34.7478
            ],
            [
              40.943999999999996,
              34.747
            ]
          ]
        ]
      }
    },
    {
      "type": "Feature",
      "properties": {
        "id": "tower 24",
        "name": "Amazon shield",
        "building_type": "military",
        "period": [
          "Roman"
        ]
      },
      "geometry": {
        "type": "Polygon",
        "coordinates": [
          [
            [
              40.946,
              34.747
            ],
            [
              40.946799999999996,
              34.747
            ],
            [
              40.946799999999996,
              34.7478
            ],
            [
              40.946,
              34.7478
            ],
            [
              40.946,
              34.747
            ]
          ]
        ]
      }
    },
    {
      "type": "Feature",
      "properties": {
        "id": "tower 25",
        "name": "Dura-Europos",
        "building_type": "military",
        "period": [
          "Roman"
        ]
      },
      "geometry": {
        "type": "Polygon",
        "coordinates": [
          [
            [
              40.948,
              34.747
            ],
            [
              40.9488,
              34.747
            ],
            [
              40.9488,
              34.7478
            ],
            [
              40.948,
              34.7478
            ],
            [
              40.948,
              34.747
            ]
          ]
        ]
      }
    },
    {
      "type": "Feature",
      "properties": {
        "id": "tower 26",
        "name": "NW wall",
        "building_type": "military",
        "period": [
          "Roman"
        ]
      },
      "geometry": {
        "type": "Polygon",
        "coordinates": [
          [
            [
              40.949999999999996,
              34.747
            ],
            [
              40.950799999999994,
              34.747
            ],
            [
              40.950799999999994,
              34.7478
            ],
            [
              40.949999999999996,
              34.7478
            ],
            [
              40.949999999999996,
              34.747
            ]
          ]
        ]
      }
    },
    {
      "type": "Feature",
      "properties": {
        "id": "tower 3",
        "name": "N Wadi and Tower 3",
        "building_type": "military",
        "period": [
          "Roman"
        ]
      },
      "geometry": {
        "type": "Polygon",
        "coordinates": [
          [
            [
              40.952,
              34.747
            ],
            [
              40.952799999999996,
              34.747
            ],
            [
              40.952799999999996,
              34.7478
            ],
            [
              40.952,
              34.7478
            ],
            [
              40.952,
              34.747
            ]
          ]
        ]
      }
    },
    {
      "type": "Feature",
      "properties": {
        "id": "tower 4",
        "name": "between tower 4-5",
        "building_type": "military",
        "period": [
          "Roman"
        ]
      },
      "geometry": {
        "type": "Polygon",
        "coordinates": [
          [
            [
              40.954,
              34.747
            ],
            [
              40.9548,
              34.747
            ],
            [
              40.9548,
              34.7478
            ],
            [
              40.954,
              34.7478
            ],
            [
              40.954,
              34.747
            ]
          ]
        ]
      }
    },
    {
      "type": "Feature",
      "properties": {
        "id": "tower 5",
        "name": "Dura-Europos",
        "building_type": "military",
        "period": [
          "Roman"
        ]
      },
      "geometry": {
        "type": "Polygon",
        "coordinates": [
          [
            [
              40.955999999999996,
              34.747
            ],
            [
              40.956799999999994,
              34.747
            ],
            [
              40.956799999999994,
              34.7478
            ],
            [
              40.955999999999996,
              34.7478
            ],
            [
              40.955999999999996,
              34.747
            ]
          ]
        ]
      }
    },
    {
      "type": "Feature",
      "properties": {
        "id": "tower 6",
        "name": "Dura-Europos fortifications",
        "building_type": "military",
        "period": [
          "Roman"
        ]
      },
      "geometry": {
        "type": "Polygon",
        "coordinates": [
          [
            [
              40.958,
              34.747
            ],
            [
              40.9588,
              34.747
            ],
            [
              40.9588,
              34.7478
            ],
            [
              40.958,
              34.7478
            ],
            [
              40.958,
              34.747
            ]
          ]
        ]
      }
    },
    {
      "type": "Feature",
      "properties": {
        "id": "tower 7",
        "name": "Tower 7",
        "building_type": "military",
        "period": [
          "Roman"
        ]
      },
      "geometry": {
        "type": "Polygon",
        "coordinates": [
          [
            [
              40.96,
              34.747
            ],
            [
              40.9608,
              34.747
            ],
            [
              40.9608,
              34.7478
            ],
            [
              40.96,
              34.7478
            ],
            [
              40.96,
              34.747
            ]
          ]
        ]
      }
    },
    {
      "type": "Feature",
      "properties": {
        "id": "tower 8",
        "name": "Dura-Europos fortifications",
        "building_type": "military",
        "period": [
          "Roman"
        ]
      },
      "geometry": {
        "type": "Polygon",
        "coordinates": [
          [
            [
              40.961999999999996,
              34.747
            ],
            [
              40.962799999999994,
              34.747
            ],
            [
              40.962799999999994,
              34.7478
            ],
            [
              40.961999999999996,
              34.7478
            ],
            [
              40.961999999999996,
              34.747
            ]
          ]
        ]
      }
    },
    {
      "type": "Feature",
      "properties": {
        "id": "tower 9",
        "name": "South Wall with Towers 9-10",
        "building_type": "military",
        "period": [
          "Roman"
        ]
      },
      "geometry": {
        "type": "Polygon",
        "coordinates": [
          [
            [
              40.964,
              34.747
            ],
            [
              40.9648,
              34.747
            ],
            [
              40.9648,
              34.7478
            ],
            [
              40.964,
              34.7478
            ],
            [
              40.964,
              34.747
            ]
          ]
        ]
      }
    },
    {
      "type": "Feature",
      "properties": {
        "id": "w1",
        "name": "animal (tiger or similar) from the dado",
        "building_type": "house",
        "period": [
          "Roman"
        ]
      },
      "geometry": {
        "type": "Polygon",
        "coordinates": [
          [
            [
              40.966,
              34.747
            ],
            [
              40.9668,
              34.747
            ],
            [
              40.9668,
              34.7478
            ],
            [
              40.966,
              34.7478
            ],
            [
              40.966,
              34.747
            ]
          ]
        ]
      }
    },
    {
      "type": "Feature",
      "properties": {
        "id": "w10",
        "name": "Synagogue/private house",
        "building_type": "house",
        "period": [
          "Roman"
        ]
      },
      "geometry": {
        "type": "Polygon",
        "coordinates": [
          [
            [
              40.967999999999996,
              34.747
            ],
            [
              40.968799999999995,
              34.747
            ],
            [
              40.968799999999995,
              34.7478
            ],
            [
              40.967999999999996,
              34.7478
            ],
            [
              40.967999999999996,
              34.747
            ]
          ]
        ]
      }
    },
    {
      "type": "Feature",
      "properties": {
        "id": "w11",
        "name": "synagogue dado painting",
        "building_type": "house",
        "period": [
          "Roman"
        ]
      },
      "geometry": {
        "type": "Polygon",
        "coordinates": [
          [
            [
              40.97,
              34.747
            ],
            [
              40.9708,
              34.747
            ],
            [
              40.9708,
              34.7478
            ],
            [
              40.97,
              34.7478
            ],
            [
              40.97,
              34.747
            ]
          ]
        ]
      }
    },
    {
      "type": "Feature",
      "properties": {
        "id": "w13",
        "name": "Dura-Europos",
        "building_type": "house",
        "period": [
          "Roman"
        ]
      },
      "geometry": {
        "type": "Polygon",
        "coordinates": [
          [
            [
              40.972,
              34.747
            ],
            [
              40.9728,
              34.747
            ],
            [
              40.9728,
              34.7478
            ],
            [
              40.972,
              34.7478
            ],
            [
              40.972,
              34.747
            ]
          ]
        ]
      }
    },
    {
      "type": "Feature",
      "properties": {
        "id": "w14",
        "name": "lion hunt",
        "building_type": "house",
        "period": [
          "Roman"
        ]
      },
      "geometry": {
        "type": "Polygon",
        "coordinates": [
          [
            [
              40.974,
              34.747
            ],
            [
              40.974799999999995,
              34.747
            ],
            [
              40.974799999999995,
              34.7478
            ],
            [
              40.974,
              34.7478
            ],
            [
              40.974,
              34.747
            ]
          ]
        ]
      }
    },
    {
      "type": "Feature",
      "properties": {
        "id": "w3",
        "name": "Roman Bath/Private house doorway",
        "building_type": "house",
        "period": [
          "Roman"
        ]
      },
      "geometry": {
        "type": "Polygon",
        "coordinates": [
          [
            [
              40.976,
              34.747
            ],
            [
              40.9768,
              34.747
            ],
            [
              40.9768,
              34.7478
            ],
            [
              40.976,
              34.7478
            ],
            [
              40.976,
              34.747
            ]
          ]
        ]
      }
    },
    {
      "type": "Feature",
      "properties": {
        "id": "w4",
        "name": "Roman Bath/Private house doorway",
        "building_type": "house",
        "period": [
          "Roman"
        ]
      },
      "geometry": {
        "type": "Polygon",
        "coordinates": [
          [
            [
              40.978,
              34.747
            ],
            [
              40.9788,
              34.747
            ],
            [
              40.9788,
              34.7478
            ],
            [
              40.978,
              34.7478
            ],
            [
              40.978,
              34.747
            ]
          ]
        ]
      }
    },
    {
      "type": "Feature",
      "properties": {
        "id": "w5",
        "name": "Synagogue/private house",
        "building_type": "house",
        "period": [
          "Roman"
        ]
      },
      "geometry": {
        "type": "Polygon",
        "coordinates": [
          [
            [
              40.98,
              34.747
            ],
            [
              40.980799999999995,
              34.747
            ],
            [
              40.980799999999995,
              34.7478
            ],
            [
              40.98,
              34.7478
            ],
            [
              40.98,
              34.747
            ]
          ]
        ]
      }
    },
    {
      "type": "Feature",
      "properties": {
        "id": "w6",
        "name": "wc2 (w60c)",
        "building_type": "house",
        "period": [
          "Roman"
        ]
      },
      "geometry": {
        "type": "Polygon",
        "coordinates": [
          [
            [
              40.982,
              34.747
            ],
            [
              40.9828,
              34.747
            ],
            [
              40.9828,
              34.7478
            ],
            [
              40.982,
              34.7478
            ],
            [
              40.982,
              34.747
            ]
          ]
        ]
      }
    },
    {
      "type": "Feature",
      "properties": {
        "id": "w7",
        "name": "Roman bath/private house",
        "building_type": "house",
        "period": [
          "Roman"
        ]
      },
      "geometry": {
        "type": "Polygon",
        "coordinates": [
          [
            [
              40.984,
              34.747
            ],
            [
              40.9848,
              34.747
            ],
            [
              40.9848,
              34.7478
            ],
            [
              40.984,
              34.7478
            ],
            [
              40.984,
              34.747
            ]
          ]
        ]
      }
    },
    {
      "type": "Feature",
      "properties": {
        "id": "w9",
        "name": "stone steps",
        "building_type": "house",
        "period": [
          "Roman"
        ]
      },
      "geometry": {
        "type": "Polygon",
        "coordinates": [
          [
            [
              40.986,
              34.747
            ],
            [
              40.986799999999995,
              34.747
            ],
            [
              40.986799999999995,
              34.7478
            ],
            [
              40.986,
              34.7478
            ],
            [
              40.986,
              34.747
            ]
          ]
        ]
      }
    },
    {
      "type": "Feature",
      "properties": {
        "id": "x3",
        "name": "X3",
        "building_type": "house",
        "period": [
          "Roman"
        ]
      },
      "geometry": {
        "type": "Polygon",
        "coordinates": [
          [
            [
              40.988,
              34.747
            ],
            [
              40.9888,
              34.747
            ],
            [
              40.9888,
              34.7478
            ],
            [
              40.988,
              34.7478
            ],
            [
              40.988,
              34.747
            ]
          ]
        ]
      }
    },
    {
      "type": "Feature",
      "properties": {
        "id": "x5",
        "name": "court 58",
        "building_type": "house",
        "period": [
          "Roman"
        ]
      },
      "geometry": {
        "type": "Polygon",
        "coordinates": [
          [
            [
              40.99,
              34.747
            ],
            [
              40.9908,
              34.747
            ],
            [
              40.9908,
              34.7478
            ],
            [
              40.99,
              34.7478
            ],
            [
              40.99,
              34.747
            ]
          ]
        ]
      }
    },
    {
      "type": "Feature",
      "properties": {
        "id": "x7",
        "name": "Dura Europos",
        "building_type": "house",
        "period": [
          "Roman"
        ]
      },
      "geometry": {
        "type": "Polygon",
        "coordinates": [
          [
            [
              40.992,
              34.747
            ],
            [
              40.992799999999995,
              34.747
            ],
            [
              40.992799999999995,
              34.7478
            ],
            [
              40.992,
              34.7478
            ],
            [
              40.992,
              34.747
            ]
          ]
        ]
      }
    },
    {
      "type": "Feature",
      "properties": {
        "id": "z1",
        "name": "altar in Temple of Zeus Kyrios Room Z1",
        "building_type": "house",
        "period": [
          "Roman"
        ]
      },
      "geometry": {
        "type": "Polygon",
        "coordinates": [
          [
            [
              40.994,
              34.747
            ],
            [
              40.9948,
              34.747
            ],
            [
              40.9948,
              34.7478
            ],
            [
              40.994,
              34.7478
            ],
            [
              40.994,
              34.747
            ]
          ]
        ]
      }
    },
    {
      "type": "Feature",
      "properties": {
        "id": "z2",
        "name": "Temple of Zeus Kyrios corridor Z2",
        "building_type": "house",
        "period": [
          "Roman"
        ]
      },
      "geometry": {
        "type": "Polygon",
        "coordinates": [
          [
            [
              40.996,
              34.747
            ],
            [
              40.9968,
              34.747
            ],
            [
              40.9968,
              34.7478
            ],
            [
              40.996,
              34.7478
            ],
            [
              40.996,
              34.747
            ]
          ]
        ]
      }
    },
    {
      "type": "Feature",
      "properties": {
        "id": "z3",
        "name": "Temple of Zeus Kyrios Z3",
        "building_type": "house",
        "period": [
          "Roman"
        ]
      },
      "geometry": {
        "type": "Polygon",
        "coordinates": [
          [
            [
              40.998,
              34.747
            ],
            [
              40.998799999999996,
              34.747
            ],
            [
              40.998799999999996,
              34.7478
            ],
            [
              40.998,
              34.7478
            ],
            [
              40.998,
              34.747
            ]
          ]
        ]
      }
    }
  ]
}